satname,norad_id,inclination_deg,eccentricity,mean_motion_rev_per_day,perigee_km,apogee_km,l1,l2
STARLINK-1184,45098,53.0566,0.0005871,15.09247179,534.4383284310588,542.5598425226253,1 45098U 20006BG  26041.32578631  .00020738  00000+0  13023-2 0  9992,2 45098  53.0566   8.8990 0005871  53.4232 306.7298 15.09247179332904
STARLINK-1193,45100,53.0552,0.000498,15.47378969,421.0092378570107,427.7845616211516,1 45100U 20006BJ  26041.26105663  .00073810  00000+0  14141-2 0  9991,2 45100  53.0552   2.1979 0004980  97.4872 262.6701 15.47378969332997
STARLINK-1143,45179,53.0478,0.0004325,15.56690071,394.31389451287305,400.1745992914439,1 45179U 20012B   26041.38803460  .00033306  00000+0  46313-3 0  9990,2 45179  53.0478 102.7416 0004325 335.5047  24.5758 15.56690071331667
STARLINK-1202,45183,53.1578,0.0001217,15.3018245,474.4334117326207,476.1015303808754,1 45183U 20012F   26041.58288032  .00000527  00000+0  29925-4 0  9999,2 45183  53.1578 165.1553 0001217  87.5159 272.5981 15.30182450330801
STARLINK-1216,45185,53.1605,0.0001277,15.30191544,474.36514134392837,476.1154939108501,1 45185U 20012H   26041.57339556  .00000511  00000+0  29387-4 0  9993,2 45185  53.1605 165.1825 0001277  82.6205 277.4941 15.30191544330747
STARLINK-1225,45187,53.16,0.0001268,15.30194309,474.36305457514663,476.10106896921206,1 45187U 20012K   26041.57029714 -.00003235  00000+0 -97166-4 0  9995,2 45187  53.1600 165.6337 0001268 116.4445 243.6686 15.30194309330786
STARLINK-1230,45189,53.1602,0.0004037,15.3005685,472.8756520466741,478.40939363341477,1 45189U 20012M   26041.57983410 -.00063385  00000+0 -21550-2 0  9993,2 45189  53.1602 165.6534 0004037  80.8426 279.3031 15.30056850328010
STARLINK-1234,45190,53.0461,0.0006617,15.56086329,394.51221295699634,403.4810716191996,1 45190U 20012N   26041.46981921  .00109740  00000+0  15291-2 0  9997,2 45190  53.0461  97.7007 0006617 243.9035 116.1295 15.56086329331632
STARLINK-1269,45197,53.1599,0.000139,15.30190815,474.2898745611892,476.195114060607,1 45197U 20012V   26041.57661733 -.00000064  00000+0  99606-5 0  9997,2 45197  53.1599 165.5239 0001390  85.1167 274.9993 15.30190815330767
STARLINK-1154,45198,53.0489,0.0005401,15.42221772,435.8713628536061,443.23583223707465,1 45198U 20012W   26041.58336806  .00079141  00000+0  18048-2 0  9998,2 45198  53.0489 138.8720 0005401 347.9659 137.1816 15.42221772  5915
STARLINK-1199,45201,53.0562,0.0001426,15.06394657,546.2403764726268,548.2154905516645,1 45201U 20012Z   26041.53220574  .00001996  00000+0  15285-3 0  9996,2 45201  53.0562 148.5361 0001426  96.3716 263.7436 15.06394657331024
STARLINK-1209,45206,53.0481,0.0008404,15.46110504,422.397053255585,433.8370050277663,1 45206U 20012AE  26041.43717766  .00073547  00000+0  14709-2 0  9994,2 45206  53.0481 103.9128 0008404 210.8303 149.2211 15.46110504330695
STARLINK-1210,45207,53.0104,0.0007083,15.95019475,283.53831175918185,292.98192992056465,1 45207U 20012AF  26041.58336806  .00335276  55393-4  84715-3 0  9998,2 45207  53.0104  39.5179 0007083  55.0206 318.7703 15.95019475  6048
STARLINK-1231,45212,53.0458,0.00022,15.18822397,507.8831761395413,510.91369173047406,1 45212U 20012AL  26041.52138928  .00024086  00000+0  11541-2 0  9993,2 45212  53.0458 140.3273 0002200 334.0472  26.0411 15.18822397331094
STARLINK-1271,45217,53.0578,0.000147,15.06392205,546.2174188436684,548.2534783435549,1 45217U 20012AR  26041.58381066 -.00000705  00000+0 -28428-4 0  9995,2 45217  53.0578 148.3084 0001470  90.6160 269.4998 15.06392205331031
STARLINK-1191,45222,53.1598,0.0001326,15.31037929,471.80588271548913,473.62272848173325,1 45222U 20012AW  26041.50643155  .00003160  00000+0  11582-3 0  9991,2 45222  53.1598 125.1764 0001326  76.3110 283.8039 15.31037929331352
STARLINK-1212,45223,53.0529,0.0003783,15.43487197,433.2490520417505,438.40449703356626,1 45223U 20012AX  26041.60001190  .00093313  00000+0  20346-2 0  9996,2 45223  53.0529 119.6132 0003783   6.9553 353.1504 15.43487197331449
STARLINK-1215,45225,53.1606,0.0001474,15.30192877,474.2261502659485,476.2465247258424,1 45225U 20012AZ  26041.55006886  .00002211  00000+0  86788-4 0  9990,2 45225  53.1606 124.3667 0001474  81.6979 278.4188 15.30192877331329
STARLINK-1221,45227,53.0669,0.0001967,15.40878531,442.1733590648082,444.8569970316539,1 45227U 20012BB  26041.35466892  .00015571  00000+0  38236-3 0  9994,2 45227  53.0669  39.0382 0001967 326.5245  33.5634 15.40878531332493
STARLINK-1222,45228,53.0555,0.0002138,15.47312375,423.137655421453,426.04650237559144,1 45228U 20012BC  26041.44999815  .00032555  00000+0  63338-3 0  9993,2 45228  53.0555 113.2232 0002138  20.8310 339.2784 15.47312375331403
STARLINK-1226,45229,53.1614,0.0001312,15.31031525,471.8345752187952,473.63224361422635,1 45229U 20012BD  26041.52306226 -.00001488  00000+0 -37038-4 0  9993,2 45229  53.1614 124.9033 0001312  94.3336 265.7815 15.31031525331255
STARLINK-1227,45230,53.1618,0.0001512,15.31024289,471.7191404700825,473.7908502094733,1 45230U 20012BE  26041.55071883  .00000937  00000+0  42770-4 0  9991,2 45230  53.1618 125.0886 0001512  70.0704 290.0460 15.31024289331370
STARLINK-1246,45235,53.1588,0.0001567,15.30020221,474.6779052760485,476.8259140603386,1 45235U 20012BK  26041.58608739  .00072690  00000+0  24561-2 0  9996,2 45235  53.1588 165.1421 0001567  87.0617 273.0563 15.30020221330827
STARLINK-1270,45237,53.0508,0.0003055,15.42571011,436.4420491253304,440.60702932579807,1 45237U 20012BM  26041.47106613  .00070640  00000+0  15955-2 0  9990,2 45237  53.0508 117.1058 0003055 315.5624  44.5135 15.42571011331462
STARLINK-1279,45360,53.0456,0.0007259,15.51859059,406.3699023400213,416.2268045861774,1 45360U 20019A   26041.50379046  .00091106  00000+0  14850-2 0  9993,2 45360  53.0456 230.0636 0007259 129.7640 230.4010 15.51859059326442
STARLINK-1301,45361,53.0456,0.0009521,15.58295712,386.1428815279796,399.035698529452,1 45361U 20019B   26041.58336806  .00165675  00000+0  21060-2 0  9993,2 45361  53.0456 236.4710 0009521 120.7579 196.4462 15.58295712  5962
STARLINK-1262,45366,53.0537,0.0001588,15.06418903,546.0538874206068,548.2533597226529,1 45366U 20019G   26041.09173837  .00008924  00000+0  61692-3 0  9996,2 45366  53.0537 290.5096 0001588  74.4008 285.7156 15.06418903325578
STARLINK-1273,45367,53.0538,0.0002092,15.40941262,441.9029883686544,444.7570901778872,1 45367U 20019H   26041.06538159  .00072068  00000+0  17181-2 0  9999,2 45367  53.0538 285.9039 0002092 120.0805 240.0407 15.40941262325636
STARLINK-1276,45368,53.0551,0.000167,15.06394562,546.0716886826785,548.38476066772,1 45368U 20019J   26041.08436295  .00002417  00000+0  18112-3 0  9997,2 45368  53.0551 290.5412 0001670  89.1270 270.9911 15.06394562325573
STARLINK-1277,45369,53.054,0.0001823,15.44149173,432.6373761740233,435.12103728299644,1 45369U 20019K   26041.61371883  .00021015  00000+0  45939-3 0  9990,2 45369  53.0540 281.8158 0001823  59.7837 300.3349 15.44149173325744
STARLINK-1281,45370,53.0527,0.0001379,15.06395207,546.271240240033,548.181255423784,1 45370U 20019L   26041.07331183  .00003843  00000+0  27679-3 0  9991,2 45370  53.0527 290.5946 0001379  97.3722 262.7423 15.06395207325574
STARLINK-1300,45374,53.0532,0.0001356,15.06399601,546.273703385803,548.1518582463596,1 45374U 20019Q   26041.09544028  .00007363  00000+0  51268-3 0  9993,2 45374  53.0532 290.4936 0001356  76.2820 283.8320 15.06399601325574
STARLINK-1302,45375,53.053,0.0002032,15.44828717,430.49760409964165,433.26519557733627,1 45375U 20019R   26040.94202677  .00082262  00000+0  17178-2 0  9990,2 45375  53.0530 284.4765 0002032 116.6232 243.4982 15.44828717325645
STARLINK-1304,45376,53.0527,0.00056,15.43531712,431.88001908694787,439.51151178423515,1 45376U 20019S   26041.03717823  .00067416  00000+0  14748-2 0  9990,2 45376  53.0527 281.3352 0005600 127.3548 232.7968 15.43531712325698
STARLINK-1305,45377,53.0472,0.0006631,15.47680915,419.0019337180411,428.0222807640639,1 45377U 20019T   26041.05196747  .00096344  00000+0  18182-2 0  9997,2 45377  53.0472 264.9270 0006631  87.3858 272.7908 15.47680915325937
STARLINK-1319,45379,53.0484,0.0006389,15.53448157,402.3325887946412,411.0022118573779,1 45379U 20019V   26041.02231596  .00078636  00000+0  12137-2 0  9996,2 45379  53.0484 264.0787 0006389 104.1691 256.0028 15.53448157325945
STARLINK-1266,45383,53.0523,0.0001973,15.41863968,439.2629576880963,441.9536345819497,1 45383U 20019Z   26041.00740076  .00017352  00000+0  41128-3 0  9998,2 45383  53.0523 264.4648 0001973 119.9315 240.1885 15.41863968325926
STARLINK-1267,45384,53.0532,0.0007626,15.45037352,426.0754703951716,436.4611753936506,1 45384U 20019AA  26041.03773283  .00095708  00000+0  19779-2 0  9995,2 45384  53.0532 259.1266 0007626 138.8525 221.3057 15.45037352326004
STARLINK-1272,45386,53.0478,0.000722,15.50724169,409.70612952667034,419.51485690687423,1 45386U 20019AC  26040.87574063  .00124648  00000+0  21039-2 0  9991,2 45386  53.0478 243.9578 0007220 105.7154 254.4651 15.50724169326207
STARLINK-1274,45387,53.03,0.0009508,15.43325637,429.82313492236426,442.7814727024943,1 45387U 20019AD  26040.84500197  .00098395  00000+0  21526-2 0  9996,2 45387  53.0300 235.6420 0009508 135.2203 224.9570 15.43325637326313
STARLINK-1280,45388,53.0471,0.000713,15.59465425,384.37806017586627,394.02828726359076,1 45388U 20019AE  26040.83118043  .00118664  00000+0  14545-2 0  9996,2 45388  53.0471 258.7559 0007130 102.5973 257.5837 15.59465425325989
STARLINK-1283,45389,53.0472,0.0011964,15.5051021,407.10778758007655,423.3629690068574,1 45389U 20019AF  26040.98884495  .00119220  00000+0  20258-2 0  9991,2 45389  53.0472 243.5866 0011964 135.3830 224.8143 15.50510210326229
STARLINK-1284,45390,53.0526,0.0003301,15.46929439,423.4687394858338,427.96064237218525,1 45390U 20019AG  26040.93802698  .00096982  00000+0  18793-2 0  9993,2 45390  53.0526 263.9946 0003301 138.3899 221.7359 15.46929439325923
